[Satellite]
VERSION=1.1
NAME=FLOCK 3P-38
NICKNAME=FLOCK 3P-38
TLE1=1 42037U 17008CT  17186.20557630  .00001604  00000-0  71917-4 0  9993
TLE2=2 42037  97.4946 247.5595 0008806 143.7251 216.4584 15.22657628 21220
